{
    "links": {
        "self": "http://www.neowsapp.com/rest/v1/neo/3787066?api_key=iIulBulltgU6a56xZRHN4H3l9WmuAYTsLGpBGhQ2"
    },
    "id": "3787066",
    "neo_reference_id": "3787066",
    "name": "(2017 TQ6)",
    "designation": "2017 TQ6",
    "nasa_jpl_url": "http://ssd.jpl.nasa.gov/sbdb.cgi?sstr=3787066",
    "absolute_magnitude_h": 21.9,
    "estimated_diameter": {
        "kilometers": {
            "estimated_diameter_min": 0.1108038821,
            "estimated_diameter_max": 0.2477650126
        },
        "meters": {
            "estimated_diameter_min": 110.8038821264,
            "estimated_diameter_max": 247.7650126055
        },
        "miles": {
            "estimated_diameter_min": 0.068850319,
            "estimated_diameter_max": 0.1539539936
        },
        "feet": {
            "estimated_diameter_min": 363.5298086356,
            "estimated_diameter_max": 812.8773639568
        }
    },
    "is_potentially_hazardous_asteroid": false,
    "close_approach_data": [
        {
            "close_approach_date": "2017-10-24",
            "close_approach_date_full": "2017-Oct-24 09:41",
            "epoch_date_close_approach": 1508838060000,
            "relative_velocity": {
                "kilometers_per_second": "8.0344059533",
                "kilometers_per_hour": "28923.8614319715",
                "miles_per_hour": "17972.1626769937"
            },
            "miss_distance": {
                "astronomical": "0.2478333478",
                "lunar": "96.4071722942",
                "kilometers": "37075340.945849186",
                "miles": "23037548.5984273268"
            },
            "orbiting_body": "Earth"
        },
        {
            "close_approach_date": "2027-09-06",
            "close_approach_date_full": "2027-Sep-06 17:46",
            "epoch_date_close_approach": 1820252760000,
            "relative_velocity": {
                "kilometers_per_second": "14.668840768",
                "kilometers_per_hour": "52807.8267647604",
                "miles_per_hour": "32812.7299139146"
            },
            "miss_distance": {
                "astronomical": "0.4314169617",
                "lunar": "167.8211981013",
                "kilometers": "64539058.552191579",
                "miles": "40102711.3968946302"
            },
            "orbiting_body": "Earth"
        }
    ],
    "orbital_data": {
        "orbit_id": "11",
        "orbit_determination_date": "2017-12-09 06:22:19",
        "first_observation_date": "2017-10-15",
        "last_observation_date": "2017-12-08",
        "data_arc_in_days": 54,
        "observations_used": 50,
        "orbit_uncertainty": "6",
        "minimum_orbit_intersection": ".158221",
        "jupiter_tisserand_invariant": "3.476",
        "epoch_osculation": "2459000.5",
        "eccentricity": ".4944320393852044",
        "semi_major_axis": "2.218299481870779",
        "inclination": "5.432454969087496",
        "ascending_node_longitude": "294.4841214439792",
        "orbital_period": "1206.781638140853",
        "perihelion_distance": "1.121501145082267",
        "perihelion_argument": "83.67479444144119",
        "aphelion_distance": "3.31509781865929",
        "perihelion_time": "2459254.429269307972",
        "mean_anomaly": "284.2493139921307",
        "mean_motion": ".2983141179995162",
        "equinox": "J2000",
        "orbit_class": {
            "orbit_class_type": "AMO",
            "orbit_class_description": "Near-Earth asteroid orbits similar to that of 1221 Amor",
            "orbit_class_range": "1.017 AU < q (perihelion) < 1.3 AU"
        }
    },
    "is_sentry_object": false
}